[{"OBJECT_NAME":"LYNK TOWER 5","OBJECT_ID":"2024-043Z","EPOCH":"2026-03-09T22:11:51.175104","MEAN_MOTION":15.29454506,"ECCENTRICITY":0.00104056,"INCLINATION":97.5458,"RA_OF_ASC_NODE":204.7305,"ARG_OF_PERICENTER":234.6422,"MEAN_ANOMALY":125.3846,"EPHEMERIS_TYPE":0,"CLASSIFICATION_TYPE":"U","NORAD_CAT_ID":59121,"ELEMENT_SET_NO":999,"REV_AT_EPOCH":11186,"BSTAR":0.00031901545,"MEAN_MOTION_DOT":9.048e-5,"MEAN_MOTION_DDOT":0},{"OBJECT_NAME":"STARLINK-35407","OBJECT_ID":"2025-253R","EPOCH":"2026-03-09T11:15:16.781472","MEAN_MOTION":15.27588831,"ECCENTRICITY":0.00016378,"INCLINATION":42.9964,"RA_OF_ASC_NODE":213.5,"ARG_OF_PERICENTER":213.2147,"MEAN_ANOMALY":146.8603,"EPHEMERIS_TYPE":0,"CLASSIFICATION_TYPE":"U","NORAD_CAT_ID":66334,"ELEMENT_SET_NO":999,"REV_AT_EPOCH":2021,"BSTAR":0.00094235989,"MEAN_MOTION_DOT":0.00025768,"MEAN_MOTION_DDOT":0}]
